#aV2016  3 30  0  0  0.00000000     288 DD+AD WGS84 FIT  NGA
## 1890 259200.00000000   300.00000000 57477 0.0000000000000
+   31     1  2  3  5  6  7  8  9 10 11 12 13 14 15 16 17 18
+         19 20 21 22 23 24 25 26 27 28 29 30 31 32  0  0  0
+          0  0  0  0  0  0  0  0  0  0  0  0  0  0  0  0  0
+          0  0  0  0  0  0  0  0  0  0  0  0  0  0  0  0  0
+          0  0  0  0  0  0  0  0  0  0  0  0  0  0  0  0  0
++         2  2  2  2  2  2  2  2  2  2  2  2  2  2  2  2  2
++         2  2  2  2  2  2  2  2  2  2  2  2  2  2  0  0  0
++         0  0  0  0  0  0  0  0  0  0  0  0  0  0  0  0  0
++         0  0  0  0  0  0  0  0  0  0  0  0  0  0  0  0  0
++         0  0  0  0  0  0  0  0  0  0  0  0  0  0  0  0  0
%c cc cc ccc ccc cccc cccc cccc cccc ccccc ccccc ccccc ccccc
%c cc cc ccc ccc cccc cccc cccc cccc ccccc ccccc ccccc ccccc
%f  0.0000000  0.000000000  0.00000000000  0.000000000000000
%f  0.0000000  0.000000000  0.00000000000  0.000000000000000
%i    0    0    0    0      0      0      0      0         0
%i    0    0    0    0      0      0      0      0         0
/*      NGA, ST. LOUIS,MO.                                  
/*   EPHEMERIS COMPUTED FROM 2 DAYS OF DATA                 
/*   EPOCHA v2.4 SMOOTHER                                   
/*   G1762 IERS2010 SATAF SATAPC                            
*  2016  3 30 14 15  0.00000000
P  1 -14841.726930   2922.362815  21761.061266     15.850478                    
V  1  -6568.683683 -27007.619288   -629.352379      0.011034                    
P  2  14248.049206  19249.204053 -11477.527363    598.552678                    
V  2   1622.206094  15277.318719  26235.107863     -0.005133                    
P  3 -21856.298461  11203.434722  10129.653084    -41.987322                    
V  3   7508.620666 -10736.334767  28072.914586     -0.042657                    
P  5  14737.855732   6822.888364 -21113.990551   -133.188640                    
V  5 -18581.302257  19142.701823  -6610.596318      0.032471                    
P  6   5899.342642  25885.267751    827.906174    168.226882                    
V  6  -2899.649504   -339.438578  31792.732145      0.057360                    
P  7  -7516.049355  18993.289224 -16624.936650    462.693919                    
V  7  -6611.706358 -20558.247519 -20723.622607     -0.019275                    
P  8 -25895.236146  -5465.546712   2476.921593    -29.451652                    
V  8  -2226.009567  -3449.480116 -31569.093631     -0.014458                    
P  9 -14478.764176  10411.818340 -19704.681226    100.075627                    
V  9 -23734.948797  -7932.821253  13247.164162      0.074932                    
P 10   5919.795996 -20790.860368  15406.183306     14.783112                    
V 10  15459.911543 -12162.827607 -22433.078527     -0.098664                    
P 11 -18857.887704  -1691.479899  18094.070140   -638.795403                    
V 11 -12026.537143 -21308.418033 -14054.629044     -0.015686                    
P 12  21665.447059  -7428.131972  13132.322898    374.435853                    
V 12 -11654.924682  12374.847648  26195.985997      0.014534                    
P 13  22788.969739  12807.085180  -4555.759370     -7.304323                    
V 13  -6143.100674    135.448444 -31357.740092     -0.027676                    
P 14  -3738.833275 -16663.347606  20636.906576     -5.523586                    
V 14  24260.432307   8155.391926  10963.838200     -0.021677                    
P 15  26056.933748   1531.012549   5696.540739   -304.153768                    
V 15   6435.366047   4877.154819 -29745.406290     -0.017657                    
P 16 -13325.581967  -7512.152183 -21860.549638    -28.284280                    
V 16  20883.320500 -17716.021325  -6291.133826      0.028512                    
P 17   2025.200750  16011.978400  21458.267277   -202.623243                    
V 17 -25167.148734  -7979.696525   8276.879673     -0.004097                    
P 18  14737.130323 -21297.309923   5741.253170    499.214938                    
V 18   7517.542304  -2061.553169 -29964.699799      0.040825                    
P 19  12566.661918  16635.406864  15992.130346   -525.500330                    
V 19 -20142.248579  -5790.724328  21915.596269     -0.001176                    
P 20  21232.864791  -8749.349594 -13540.407335    402.711236                    
V 20  -9033.134096  14711.944257 -23892.162136      0.024867                    
P 21   4165.561105 -21970.771981 -13377.324467   -517.052134                    
V 21   7975.008399  16889.075070 -24201.376582     -0.015723                    
P 22 -18437.180884  -2037.937517  19318.235773    372.080433                    
V 22  15725.698402 -18325.909536  13078.174819     -0.070262                    
P 23 -23277.421767   2856.062252 -12697.311991   -167.089102                    
V 23 -14993.170844  -6769.483178  25164.595379     -0.017665                    
P 24  15888.367229    510.561883  21244.030966    -14.747711                    
V 24   6669.748881  26291.958467  -5413.013254     -0.005446                    
P 25  20180.827398 -16868.354376   2719.538947   -143.744810                    
V 25   -936.303383   4233.932358  32031.452593     -0.070953                    
P 26  -4612.271150 -15831.304948 -20814.377781   -312.150706                    
V 26  19501.286833 -17867.418086   9315.060341     -0.141179                    
P 27 -22485.016113 -11949.743987  -7866.728110     77.138250                    
V 27  10129.475035    568.122338 -29749.122752      0.038023                    
P 28  -8086.877646  20197.336942  15830.134549    512.710290                    
V 28 -15333.712968  11159.108040 -23038.089904      0.027075                    
P 29  17542.194437  -7182.121939 -18569.618275    656.462101                    
V 29  21860.143056   8948.038251  17219.937000      0.003927                    
P 30  -1452.975546  25188.964878  -8163.268979    111.895167                    
V 30  -4684.232915  -9722.991758 -29288.696821      0.036967                    
P 31  -6632.333434 -25447.523565  -1712.606934    276.064191                    
V 31   2241.195702  -2854.032514  32136.354884     -0.017246                    
P 32  -5466.279466 -16273.997252  20268.472941      8.682064                    
V 32  25053.927725   5968.366057  11547.076692     -0.016214                    
EOF
